#dV2023  2  2 22  0  0.00000000    1682       CTS   FIT  GFZ
## 2247 424800.00000000    30.00000000 59977 0.9166666666667
+    1   L64  0  0  0  0  0  0  0  0  0  0  0  0  0  0  0  0
+          0  0  0  0  0  0  0  0  0  0  0  0  0  0  0  0  0
+          0  0  0  0  0  0  0  0  0  0  0  0  0  0  0  0  0
+          0  0  0  0  0  0  0  0  0  0  0  0  0  0  0  0  0
+          0  0  0  0  0  0  0  0  0  0  0  0  0  0  0  0  0
++         0  0  0  0  0  0  0  0  0  0  0  0  0  0  0  0  0
++         0  0  0  0  0  0  0  0  0  0  0  0  0  0  0  0  0
++         0  0  0  0  0  0  0  0  0  0  0  0  0  0  0  0  0
++         0  0  0  0  0  0  0  0  0  0  0  0  0  0  0  0  0
++         0  0  0  0  0  0  0  0  0  0  0  0  0  0  0  0  0
%c L  cc GPS ccc cccc cccc cccc cccc ccccc ccccc ccccc ccccc
%c cc cc ccc ccc cccc cccc cccc cccc ccccc ccccc ccccc ccccc
%f  0.0000000  0.000000000  0.00000000000  0.000000000000000
%f  0.0000000  0.000000000  0.00000000000  0.000000000000000
%i    0    0    0    0      0      0      0      0         0
%i    0    0    0    0      0      0      0      0         0
/* CCCCCCCCCCCCCCCCCCCCCCCCCCCCCCCCCCCCCCCCCCCCCCCCCCCCCCCCCCCCCCCCCCCCCCCCCCCCC
/* C                             GFZ RSO-ORBIT                                 C
/* C DOI: https://doi.org/10.5880/GFZ_ORBIT/RSO/L64_G_v02                      C
/* C                                                                           C
/* C DORIS        RMS: not applicable                                          C
/* C GNSS-E Code  RMS: not applicable                                          C
/* C GNSS-E Phase RMS: not applicable                                          C
/* C GNSS-G Code  RMS:  50.163 [cm]   Obs.acc.:     13687 Obs.eli.:       900  C
/* C GNSS-G Phase RMS:   4.166 [mm]   Obs.acc.:     13687 Obs.eli.:       900  C
/* C SLR          RMS:   1.778 [cm]   Obs.acc.:        34 Obs.eli.:         0  C
/* C                                                                           C
/* CCCCCCCCCCCCCCCCCCCCCCCCCCCCCCCCCCCCCCCCCCCCCCCCCCCCCCCCCCCCCCCCCCCCCCCCCCCCC
*  2023  2  3  0  7 30.00000000
PL64  -1889.600355  -2289.263801  -6207.442680   8297.806253
VL64 -42903.185405 -53458.141272  32681.585300 999999.999999
*  2023  2  3  0  8  0.00000000
PL64  -2017.603627  -2448.079002  -6106.003280   8298.266497
VL64 -42423.791344 -52409.364360  34938.513602 999999.999999
*  2023  2  3  0  8 30.00000000
PL64  -2144.092017  -2603.664901  -5997.849826   8298.725728
VL64 -41893.313274 -51305.503488  37157.214869 999999.999999
*  2023  2  3  0  9  0.00000000
PL64  -2268.912742  -2755.858342  -5883.100640   8299.185994
VL64 -41312.072974 -50147.963839  39335.268794 999999.999999
*  2023  2  3  0  9 30.00000000
PL64  -2391.914074  -2904.500465  -5761.881243   8299.645775
VL64 -40680.453324 -48938.206958  41470.294926 999999.999999
*  2023  2  3  0 10  0.00000000
PL64  -2512.945525  -3049.436882  -5634.324237   8300.105444
VL64 -39998.898767 -47677.749754  43559.955668 999999.999999
*  2023  2  3  0 10 30.00000000
PL64  -2631.858036  -3190.517833  -5500.569167   8300.565464
VL64 -39267.915567 -46368.163138  45601.959850 999999.999999
*  2023  2  3  0 11  0.00000000
PL64  -2748.504156  -3327.598352  -5360.762377   8301.025260
VL64 -38488.071466 -45011.069559  47594.066437 999999.999999
*  2023  2  3  0 11 30.00000000
PL64  -2862.738230  -3460.538413  -5215.056856   8301.484916
VL64 -37659.994613 -43608.140165  49534.086797 999999.999999
*  2023  2  3  0 12  0.00000000
PL64  -2974.416577  -3589.203074  -5063.612079   8301.945004
VL64 -36784.372934 -42161.092991  51419.886011 999999.999999
*  2023  2  3  0 12 30.00000000
PL64  -3083.397668  -3713.462615  -4906.593843   8302.405078
VL64 -35861.954014 -40671.691719  53249.384992 999999.999999
*  2023  2  3  0 13  0.00000000
PL64  -3189.542308  -3833.192676  -4744.174092   8302.864679
VL64 -34893.544733 -39141.743889  55020.563188 999999.999999
*  2023  2  3  0 13 30.00000000
PL64  -3292.713810  -3948.274380  -4576.530746   8303.324915
VL64 -33880.010625 -37573.098662  56731.460987 999999.999999
*  2023  2  3  0 14  0.00000000
PL64  -3392.778169  -4058.594458  -4403.847506   8303.784476
VL64 -32822.275294 -35967.644693  58380.181737 999999.999999
*  2023  2  3  0 14 30.00000000
PL64  -3489.604240  -4164.045364  -4226.313666   8304.244092
VL64 -31721.319903 -34327.308162  59964.893814 999999.999999
*  2023  2  3  0 15  0.00000000
PL64  -3583.063905  -4264.525385  -4044.123918   8304.703813
VL64 -30578.182545 -32654.050766  61483.832791 999999.999999
*  2023  2  3  0 15 30.00000000
PL64  -3673.032246  -4359.938742  -3857.478140   8305.163481
VL64 -29393.957677 -30949.867663  62935.303601 999999.999999
*  2023  2  3  0 16  0.00000000
PL64  -3759.387712  -4450.195691  -3666.581190   8305.623309
VL64 -28169.795504 -29216.785372  64317.683079 999999.999999
*  2023  2  3  0 16 30.00000000
PL64  -3842.012284  -4535.212609  -3471.642684   8306.083548
VL64 -26906.900743 -27456.859127  65629.422673 999999.999999
*  2023  2  3  0 17  0.00000000
PL64  -3920.791639  -4614.912082  -3272.876769   8306.542983
VL64 -25606.530959 -25672.169911  66869.050379 999999.999999
*  2023  2  3  0 17 30.00000000
PL64  -3995.615302  -4689.222969  -3070.501891   8307.002705
VL64 -24269.995250 -23864.821814  68035.171880 999999.999999
*  2023  2  3  0 18  0.00000000
PL64  -4066.376803  -4758.080478  -2864.740562   8307.462663
VL64 -22898.653419 -22036.939940  69126.471740 999999.999999
*  2023  2  3  0 18 30.00000000
PL64  -4132.973825  -4821.426219  -2655.819119   8307.922690
VL64 -21493.915115 -20190.668506  70141.715286 999999.999999
*  2023  2  3  0 19  0.00000000
PL64  -4195.308354  -4879.208260  -2443.967481   8308.382245
VL64 -20057.238356 -18328.168541  71079.750999 999999.999999
*  2023  2  3  0 19 30.00000000
PL64  -4253.286819  -4931.381176  -2229.418891   8308.841904
VL64 -18590.127545 -16451.614862  71939.512470 999999.999999
*  2023  2  3  0 20  0.00000000
PL64  -4306.820233  -4977.906081  -2012.409663   8309.301671
VL64 -17094.131756 -14563.193046  72720.019407 999999.999999
*  2023  2  3  0 20 30.00000000
PL64  -4355.824316  -5018.750660  -1793.178925   8309.761339
VL64 -15570.843420 -12665.096963  73420.378635 999999.999999
*  2023  2  3  0 21  0.00000000
PL64  -4400.219633  -5053.889188  -1571.968347   8310.221116
VL64 -14021.896744 -10759.526378  74039.785506 999999.999999
*  2023  2  3  0 21 30.00000000
PL64  -4439.931711  -5083.302547  -1349.021882   8310.680890
VL64 -12448.965733  -8848.684395  74577.525177 999999.999999
*  2023  2  3  0 22  0.00000000
PL64  -4474.891154  -5106.978227  -1124.585490   8311.140560
VL64 -10853.762184  -6934.774953  75032.973786 999999.999999
*  2023  2  3  0 22 30.00000000
PL64  -4505.033758  -5124.910331   -898.906865   8311.600559
VL64  -9238.033502  -5020.000035  75405.599657 999999.999999
*  2023  2  3  0 23  0.00000000
PL64  -4530.300610  -5137.099559   -672.235157   8312.060604
VL64  -7603.560580  -3106.556673  75694.963840 999999.999999
*  2023  2  3  0 23 30.00000000
PL64  -4550.638189  -5143.553193   -444.820693   8312.520451
VL64  -5952.156139  -1196.634385  75900.720531 999999.999999
*  2023  2  3  0 24  0.00000000
PL64  -4565.998457  -5144.285066   -216.914696   8312.980193
VL64  -4285.662822    707.587361  76022.617973 999999.999999
*  2023  2  3  0 24 30.00000000
PL64  -4576.338946  -5139.315536     11.230996   8313.439815
VL64  -2605.950837   2603.941885  76060.499183 999999.999999
*  2023  2  3  0 25  0.00000000
PL64  -4581.622838  -5128.671434    239.364218   8313.899602
VL64   -914.915532   4490.278149  76014.302451 999999.999999
*  2023  2  3  0 25 30.00000000
PL64  -4581.819033  -5112.386019    467.232763   8314.359577
VL64    785.525139   6364.463721  75884.061521 999999.999999
*  2023  2  3  0 26  0.00000000
PL64  -4576.902219  -5090.498914    694.584669   8314.819243
VL64   2493.433032   8224.387578  75669.905423 999999.999999
*  2023  2  3  0 26 30.00000000
PL64  -4566.852923  -5063.056043    921.168502   8315.278958
VL64   4206.852219  10067.962776  75372.058365 999999.999999
*  2023  2  3  0 27  0.00000000
PL64  -4551.657565  -5030.109547   1146.733644   8315.738669
VL64   5923.811754  11893.129186  74990.839298 999999.999999
*  2023  2  3  0 27 30.00000000
PL64  -4531.308496  -4991.717708   1371.030575   8316.198007
VL64   7642.328151  13697.855813  74526.660899 999999.999999
*  2023  2  3  0 28  0.00000000
PL64  -4505.804033  -4947.944853   1593.811153   8316.658030
VL64   9360.407396  15480.142728  73980.029024 999999.999999
*  2023  2  3  0 28 30.00000000
PL64  -4475.148490  -4898.861260   1814.828891   8317.117856
VL64  11076.047373  17238.023389  73351.542559 999999.999999
*  2023  2  3  0 29  0.00000000
PL64  -4439.352195  -4844.543051   2033.839242   8317.578102
VL64  12787.240497  18969.567301  72641.892822 999999.999999
*  2023  2  3  0 29 30.00000000
PL64  -4398.431505  -4785.072086   2250.599865   8318.037861
VL64  14491.976239  20672.882659  71851.862424 999999.999999
*  2023  2  3  0 30  0.00000000
PL64  -4352.408807  -4720.535836   2464.870905   8318.497338
VL64  16188.243441  22346.118416  70982.323764 999999.999999
*  2023  2  3  0 30 30.00000000
PL64  -4301.312522  -4651.027265   2676.415257   8318.957273
VL64  17874.032387  23987.465801  70034.238040 999999.999999
*  2023  2  3  0 31  0.00000000
PL64  -4245.177097  -4576.644696   2884.998833   8319.416860
VL64  19547.337353  25595.160266  69008.654796 999999.999999
*  2023  2  3  0 31 30.00000000
PL64  -4184.042981  -4497.491676   3090.390822   8319.876687
VL64  21206.159637  27167.483816  67906.710745 999999.999999
*  2023  2  3  0 32  0.00000000
PL64  -4117.956611  -4413.676835   3292.363956   8320.336575
VL64  22848.510109  28702.766994  66729.628021 999999.999999
*  2023  2  3  0 32 30.00000000
PL64  -4046.970370  -4325.313735   3490.694755   8320.796291
VL64  24472.411392  30199.390669  65478.712754 999999.999999
EOF
